CCSDS_OMM_VERS,COMMENT,CREATION_DATE,ORIGINATOR,OBJECT_NAME,OBJECT_ID,CENTER_NAME,REF_FRAME,TIME_SYSTEM,MEAN_ELEMENT_THEORY,EPOCH,MEAN_MOTION,ECCENTRICITY,INCLINATION,RA_OF_ASC_NODE,ARG_OF_PERICENTER,MEAN_ANOMALY,EPHEMERIS_TYPE,CLASSIFICATION_TYPE,NORAD_CAT_ID,ELEMENT_SET_NO,REV_AT_EPOCH,BSTAR,MEAN_MOTION_DOT,MEAN_MOTION_DDOT,SEMIMAJOR_AXIS,PERIOD,APOAPSIS,PERIAPSIS,OBJECT_TYPE,RCS_SIZE,COUNTRY_CODE,LAUNCH_DATE,SITE,DECAY_DATE,DECAYED,FILE,GP_ID,TLE_LINE0,TLE_LINE1,TLE_LINE2,height_km,latitude,longitude,velocity_kms,id
2.0,GENERATED VIA SPACE-TRACK.ORG API,2022-11-30T17:18:05,18 SPCS,STARLINK-3808,2022-045AM,EARTH,TEME,UTC,SGP4,2022-11-30T11:20:14.101152,15.08841459,0.0003062,53.2157,154.6543,45.9781,314.1463,0,U,52366,999,3548,6.962e-05,8.2e-06,0.0,6917.876,95.437,541.859,537.623,PAYLOAD,LARGE,US,2022-04-29,AFETR,,0,3675646,219176471,0 STARLINK-3808,1 52366U 22045AM  22334.47238543  .00000820  00000-0  69620-4 0  9992,2 52366  53.2157 154.6543 0003062  45.9781 314.1463 15.08841459 35487,544.2194228260742,-18.8923713009537,165.29523846381494,7.590642628836032,627345f1a8973c169403dbaa
2.0,GENERATED VIA SPACE-TRACK.ORG API,2022-11-30T17:18:05,18 SPCS,STARLINK-3834,2022-045AP,EARTH,TEME,UTC,SGP4,2022-11-29T22:21:15.454368,15.08839221,0.0003195,53.2177,157.0794,37.967,322.1547,0,U,52368,999,3539,0.00013973,1.936e-05,0.0,6917.883,95.438,541.958,537.538,PAYLOAD,LARGE,US,2022-04-29,AFETR,,0,3675646,219175973,0 STARLINK-3834,1 52368U 22045AP  22333.93142887  .00001936  00000-0  13973-3 0  9997,2 52368  53.2177 157.0794 0003195  37.9670 322.1547 15.08839221 35397,538.9963605747726,28.43173720365426,-156.226499716226,7.597955670102093,627345f1a8973c169403dbac
2.0,GENERATED VIA SPACE-TRACK.ORG API,2022-11-30T17:18:05,18 SPCS,STARLINK-3827,2022-045AR,EARTH,TEME,UTC,SGP4,2022-11-30T04:53:23.559360,15.08839429,0.0002803,53.217,155.8689,44.7416,315.3802,0,U,52370,999,3544,0.00012439,1.692e-05,0.0,6917.882,95.438,541.686,537.808,PAYLOAD,LARGE,US,2022-04-29,AFETR,,0,3675646,219176972,0 STARLINK-3827,1 52370U 22045AR  22334.20374490  .00001692  00000-0  12439-3 0  9993,2 52370  53.2170 155.8689 0002803  44.7416 315.3802 15.08839429 35445,539.8110722137208,-2.935805219042933,177.85614940074026,7.594159516535215,627345f1a8973c169403dbad
2.0,GENERATED VIA SPACE-TRACK.ORG API,2022-11-30T17:18:05,18 SPCS,STARLINK-3848,2022-045AH,EARTH,TEME,UTC,SGP4,2022-11-30T05:14:36.142368,15.0883166,0.0003359,53.2165,155.8052,38.5269,321.5963,0,U,52362,999,3544,8.866e-05,1.122e-05,0.0,6917.906,95.438,542.095,537.447,PAYLOAD,LARGE,US,2022-04-29,AFETR,,0,3675646,219176971,0 STARLINK-3848,1 52362U 22045AH  22334.21847387  .00001122  00000-0  88660-4 0  9993,2 52362  53.2165 155.8052 0003359  38.5269 321.5963 15.08831660 35444,559.4428966328569,-52.90776866667674,100.49164910958856,7.58084995667242,627345f1a8973c169403dbaf
2.0,GENERATED VIA SPACE-TRACK.ORG API,2022-11-30T03:22:20,18 SPCS,STARLINK-3762,2022-045AV,EARTH,TEME,UTC,SGP4,2022-11-29T18:54:35.218368,15.08839229,0.0002575,53.217,157.7239,48.9184,311.203,0,U,52374,999,3538,9.315e-05,1.194e-05,0.0,6917.883,95.438,541.529,537.966,PAYLOAD,LARGE,US,2022-04-29,AFETR,,0,3673849,219112659,0 STARLINK-3762,1 52374U 22045AV  22333.78790762  .00001194  00000-0  93150-4 0  9990,2 52374  53.2170 157.7239 0002575  48.9184 311.2030 15.08839229 35384,553.9170175861736,-38.137872590739846,50.96807422036018,7.58358802574294,627345f1a8973c169403dbb0
2.0,GENERATED VIA SPACE-TRACK.ORG API,2022-11-30T03:22:20,18 SPCS,STARLINK-3792,2022-045J,EARTH,TEME,UTC,SGP4,2022-11-29T14:17:45.059424,15.08831722,0.000301,53.2159,178.6077,39.8438,320.2775,0,U,52339,999,3507,0.00013139,1.803e-05,0.0,6917.906,95.438,541.853,537.688,PAYLOAD,LARGE,US,2022-04-29,AFETR,,0,3673849,219112905,0 STARLINK-3792,1 52339U 22045J   22333.59566041  .00001803  00000-0  13139-3 0  9996,2 52339  53.2159 178.6077 0003010  39.8438 320.2775 15.08831722 35072,555.555309963378,-41.46025221884135,122.03107897213316,7.582540995461402,627345f1a8973c169403dbb1
2.0,GENERATED VIA SPACE-TRACK.ORG API,2022-11-30T17:18:05,18 SPCS,STARLINK-3796,2022-045AT,EARTH,TEME,UTC,SGP4,2022-11-29T22:15:57.541248,15.08853902,0.0002147,53.2175,157.1006,39.3631,320.7517,0,U,52372,999,3539,7.8335e-05,9.59e-06,0.0,6917.838,95.437,541.188,538.218,PAYLOAD,LARGE,US,2022-04-29,AFETR,,0,3675646,219175475,0 STARLINK-3796,1 52372U 22045AT  22333.92774932  .00000959  00000-0  78335-4 0  9991,2 52372  53.2175 157.1006 0002147  39.3631 320.7517 15.08853902 35399,542.2555419576538,41.80632381907496,-138.2634648140545,7.597179583726237,627345f1a8973c169403dbb9
2.0,GENERATED VIA SPACE-TRACK.ORG API,2022-11-30T17:18:05,18 SPCS,STARLINK-3767,2022-045AX,EARTH,TEME,UTC,SGP4,2022-11-30T05:51:40.873248,15.0885237,0.000283,53.2168,155.6769,49.8537,310.2703,0,U,52376,999,3545,0.00012455,1.695e-05,0.0,6917.843,95.437,541.665,537.75,PAYLOAD,LARGE,US,2022-04-29,AFETR,,0,3675646,219175974,0 STARLINK-3767,1 52376U 22045AX  22334.24422307  .00001695  00000-0  12455-3 0  9995,2 52376  53.2168 155.6769 0002830  49.8537 310.2703 15.08852370 35450,541.8584498099162,33.53132655607723,-29.48848211516936,7.595811806896115,627345f2a8973c169403dcb3
2.0,GENERATED VIA SPACE-TRACK.ORG API,2022-11-30T06:36:13,18 SPCS,STARLINK-3815,2022-045H,EARTH,TEME,UTC,SGP4,2022-11-30T01:20:09.154464,15.0883599,0.0001853,53.2166,176.5464,44.6036,315.5105,0,U,52338,999,3514,4.6686e-05,4.55e-06,0.0,6917.893,95.438,541.04,538.476,PAYLOAD,LARGE,US,2022-04-29,AFETR,,0,3673923,219115911,0 STARLINK-3815,1 52338U 22045H   22334.05566151  .00000455  00000-0  46686-4 0  9995,2 52338  53.2166 176.5464 0001853  44.6036 315.5105 15.08835990 35140,549.1547704431277,-27.400183078333047,57.95330832699828,7.586622148487592,627345f2a8973c169403dcb4
2.0,GENERATED VIA SPACE-TRACK.ORG API,2022-11-30T17:18:05,18 SPCS,STARLINK-3830,2022-045AJ,EARTH,TEME,UTC,SGP4,2022-11-30T13:31:23.278368,15.0883792,0.0002804,53.2184,164.2562,42.9243,317.1968,0,U,52363,999,3536,8.1173e-05,1.004e-05,0.0,6917.887,95.438,541.692,537.812,PAYLOAD,LARGE,US,2022-04-29,AFETR,,0,3675646,219175722,0 STARLINK-3830,1 52363U 22045AJ  22334.56346387  .00001004  00000-0  81173-4 0  9997,2 52363  53.2184 164.2562 0002804  42.9243 317.1968 15.08837920 35363,546.1328889636288,-16.93091868415266,23.151147892124843,7.588291404704766,627345f2a8973c169403dcb5
2.0,GENERATED VIA SPACE-TRACK.ORG API,2022-11-30T17:18:05,18 SPCS,STARLINK-3874,2022-045AL,EARTH,TEME,UTC,SGP4,2022-11-30T13:22:07.919904,15.08826553,0.0002508,53.217,154.2688,51.8738,308.248,0,U,52365,999,3549,9.9049e-05,1.288e-05,0.0,6917.921,95.438,541.522,538.051,PAYLOAD,LARGE,US,2022-04-29,AFETR,,0,3675646,219176724,0 STARLINK-3874,1 52365U 22045AL  22334.55703611  .00001288  00000-0  99049-4 0  9990,2 52365  53.2170 154.2688 0002508  51.8738 308.2480 15.08826553 35491,555.5226494092822,-42.04392549462585,42.135069860177545,7.5827224245288285,627345f2a8973c169403dcb6
2.0,GENERATED VIA SPACE-TRACK.ORG API,2022-11-30T17:18:05,18 SPCS,STARLINK-3793,2022-045BB,EARTH,TEME,UTC,SGP4,2022-11-30T11:33:32.519232,15.0883844,0.0002537,53.2174,144.6069,52.4912,307.6311,0,U,52380,999,3562,5.1547e-05,5.32e-06,0.0,6917.885,95.438,541.505,537.995,PAYLOAD,LARGE,US,2022-04-29,AFETR,,0,3675646,219175476,0 STARLINK-3793,1 52380U 22045BB  22334.48162638  .00000532  00000-0  51547-4 0  9999,2 52380  53.2174 144.6069 0002537  52.4912 307.6311 15.08838440 35620,558.2892283965475,-50.57164609466857,105.32830099291635,7.581590472618004,627345f2a8973c169403dcb7
2.0,GENERATED VIA SPACE-TRACK.ORG API,2022-11-30T17:18:05,18 SPCS,STARLINK-3803,2022-045BC,EARTH,TEME,UTC,SGP4,2022-11-30T11:57:20.968704,15.08833572,0.0003071,53.2179,154.5455,45.8104,314.314,0,U,52381,999,3549,8.9296e-05,1.133e-05,0.0,6917.9,95.438,541.89,537.641,PAYLOAD,LARGE,US,2022-04-29,AFETR,,0,3675646,219176726,0 STARLINK-3803,1 52381U 22045BC  22334.49815936  .00001133  00000-0  89296-4 0  9997,2 52381  53.2179 154.5455 0003071  45.8104 314.3140 15.08833572 35499,545.1180023185161,-13.156961221714528,10.055292748460488,7.588984898374445,627345f2a8973c169403dcb8
2.0,GENERATED VIA SPACE-TRACK.ORG API,2022-11-30T17:18:05,18 SPCS,STARLINK-3843,2022-045L,EARTH,TEME,UTC,SGP4,2022-11-30T06:16:54.861312,15.0883096,0.0003551,53.2153,175.613,38.4042,321.7203,0,U,52341,999,3517,1.8915e-05,1.2e-07,0.0,6917.908,95.438,542.23,537.316,PAYLOAD,LARGE,US,2022-04-29,AFETR,,0,3675646,219176721,0 STARLINK-3843,1 52341U 22045L   22334.26174608  .00000012  00000-0  18915-4 0  9997,2 52341  53.2153 175.6130 0003551  38.4042 321.7203 15.08830960 35178,539.3564510109427,31.969537386808856,-132.30271841071885,7.598275512155147,627345f2a8973c169403dd5e
2.0,GENERATED VIA SPACE-TRACK.ORG API,2022-11-30T17:18:05,18 SPCS,STARLINK-3550,2022-045AU,EARTH,TEME,UTC,SGP4,2022-11-30T05:56:58.392384,15.08845646,0.0002691,53.217,155.6599,51.2143,308.9089,0,U,52373,999,3545,0.00012899,1.765e-05,0.0,6917.863,95.437,541.59,537.867,PAYLOAD,LARGE,US,2022-04-29,AFETR,,0,3675646,219176725,0 STARLINK-3550,1 52373U 22045AU  22334.24789806  .00001765  00000-0  12899-3 0  9992,2 52373  53.2170 155.6599 0002691  51.2143 308.9089 15.08845646 35455,543.8189500409444,45.93259759335536,-50.15238277008749,7.596410990057232,627345f3a8973c169403e01b
2.0,GENERATED VIA SPACE-TRACK.ORG API,2022-11-30T17:18:05,18 SPCS,STARLINK-3900,2022-049L,EARTH,TEME,UTC,SGP4,2022-11-30T12:05:16.091808,15.08841995,0.0002607,53.2188,14.5152,28.9775,331.1362,0,U,52461,999,3195,6.0834e-05,6.8e-06,0.0,6917.874,95.437,541.543,537.936,PAYLOAD,LARGE,US,2022-05-06,AFETR,,0,3675646,219176481,0 STARLINK-3900,1 52461U 22049L   22334.50365847  .00000680  00000-0  60834-4 0  9996,2 52461  53.2188  14.5152 0002607  28.9775 331.1362 15.08841995 31955,541.1940116086762,10.743122429108025,-148.0748130048621,7.593057298797272,62802090a8973c16946aa7e7
